NORAD_CAT_ID,OBJECT_NAME,OBJECT_TYPE,EPOCH,MEAN_MOTION,ECCENTRICITY,INCLINATION,RA_OF_ASC_NODE,ARG_OF_PERICENTER,MEAN_ANOMALY,BSTAR,MEAN_MOTION_DOT,MEAN_MOTION_DDOT,TLE_LINE0,TLE_LINE1,TLE_LINE2,SEMIMAJOR_AXIS,PERIOD,APOGEE,PERIGEE,DECAYED
55316.0,STARLINK-5257,PAYLOAD,2024-05-28 05:41:08,14.98334049,0.0003404,69.9991,204.3745,270.3226,89.7543,0.00011043,1.225e-05,0.0,0 STARLINK-5257,1 55316U 23010AZ  24149.23690910  .00001225  00000-0  11043-3 0  9998,2 55316  69.9991 204.3745 0003404 270.3226  89.7543 14.98334049 76030,6950.18,96.107,574.411,569.68,0.0
55316.0,STARLINK-5257,PAYLOAD,2024-05-28 13:41:48,14.98337493,0.0003311,69.9997,203.5349,267.2563,92.8217,7.4196e-05,7.93e-06,0.0,0 STARLINK-5257,1 55316U 23010AZ  24149.57070586  .00000793  00000-0  74196-4 0  9994,2 55316  69.9997 203.5349 0003311 267.2563  92.8217 14.98337493 77268,6950.17,96.107,574.336,569.734,0.0
55316.0,STARLINK-5257,PAYLOAD,2024-05-29 05:43:09,14.98331195,0.000323,69.9998,201.8521,265.3501,94.7289,5.5061e-05,5.64e-06,0.0,0 STARLINK-5257,1 55316U 23010AZ  24150.23830817  .00000564  00000-0  55061-4 0  9996,2 55316  69.9998 201.8521 0003230 265.3501  94.7289 14.98331195 76186,6950.189,96.107,574.299,569.809,0.0
55316.0,STARLINK-5257,PAYLOAD,2024-05-29 13:43:50,14.98330137,0.0003287,69.9996,201.0102,267.1577,92.9206,3.0787e-05,2.74e-06,0.0,0 STARLINK-5257,1 55316U 23010AZ  24150.57210950  .00000274  00000-0  30787-4 0  9999,2 55316  69.9996 201.0102 0003287 267.1577  92.9206 14.98330137 77417,6950.192,96.107,574.342,569.773,0.0
55316.0,STARLINK-5257,PAYLOAD,2024-05-30 05:45:10,14.98336036,0.0003383,69.9993,199.3264,270.8151,89.262,3.6962e-05,3.48e-06,0.0,0 STARLINK-5257,1 55316U 23010AZ  24151.23970474  .00000348  00000-0  36962-4 0  9990,2 55316  69.9993 199.3264 0003383 270.8151  89.2620 14.98336036 76331,6950.174,96.107,574.39,569.688,0.0
55316.0,STARLINK-5257,PAYLOAD,2024-05-30 12:09:42,14.9833661,0.0003367,69.9993,198.6532,269.6411,90.4363,4.2899e-05,4.19e-06,0.0,0 STARLINK-5257,1 55316U 23010AZ  24151.50674363  .00000419  00000-0  42899-4 0  9993,2 55316  69.9993 198.6532 0003367 269.6411  90.4363 14.98336610 77559,6950.172,96.107,574.378,569.697,0.0
55316.0,STARLINK-5257,PAYLOAD,2024-05-31 04:11:03,14.98328954,0.0003339,69.9991,196.9695,268.1738,91.9039,5.5166e-05,5.65e-06,0.0,0 STARLINK-5257,1 55316U 23010AZ  24152.17434726  .00000565  00000-0  55166-4 0  9997,2 55316  69.9991 196.9695 0003339 268.1738  91.9039 14.98328954 76471,6950.196,96.107,574.382,569.74,0.0
55316.0,STARLINK-5257,PAYLOAD,2024-05-31 12:11:43,14.98329129,0.0003345,69.9989,196.1279,267.0361,93.0415,4.956e-05,4.98e-06,0.0,0 STARLINK-5257,1 55316U 23010AZ  24152.50814751  .00000498  00000-0  49560-4 0  9990,2 55316  69.9989 196.1279 0003345 267.0361  93.0415 14.98329129 77708,6950.196,96.107,574.385,569.736,0.0
55316.0,STARLINK-5257,PAYLOAD,2024-05-31 20:12:24,14.98329989,0.0003393,69.9989,195.2864,270.0551,90.022,3.6229e-05,3.39e-06,0.0,0 STARLINK-5257,1 55316U 23010AZ  24152.84194717  .00000339  00000-0  36229-4 0  9992,2 55316  69.9989 195.2864 0003393 270.0551  90.0220 14.98329989 77756,6950.193,96.107,574.416,569.7,0.0
55316.0,STARLINK-5257,PAYLOAD,2024-06-01 04:13:04,14.98332131,0.0003385,69.9988,194.4449,270.0006,90.0766,3.637e-05,3.41e-06,0.0,0 STARLINK-5257,1 55316U 23010AZ  24153.17574560  .00000341  00000-0  36370-4 0  9997,2 55316  69.9988 194.4449 0003385 270.0006  90.0766 14.98332131 76624,6950.186,96.107,574.404,569.699,0.0
55316.0,STARLINK-5257,PAYLOAD,2024-06-01 12:13:44,14.98331956,0.0003404,69.9988,193.6033,269.8954,90.1815,3.1215e-05,2.79e-06,0.0,0 STARLINK-5257,1 55316U 23010AZ  24153.50954559  .00000279  00000-0  31215-4 0  9997,2 55316  69.9988 193.6033 0003404 269.8954  90.1815 14.98331956 77850,6950.187,96.107,574.418,569.686,0.0
55316.0,STARLINK-5257,PAYLOAD,2024-06-02 04:15:05,14.98325896,0.0003511,69.9982,191.9191,269.8669,90.2087,6.5113e-05,6.84e-06,0.0,0 STARLINK-5257,1 55316U 23010AZ  24154.17714851  .00000684  00000-0  65113-4 0  9994,2 55316  69.9982 191.9191 0003511 269.8669  90.2087 14.98325896 76770,6950.206,96.107,574.511,569.63,0.0
55316.0,STARLINK-5257,PAYLOAD,2024-06-02 12:15:45,14.98329505,0.0003527,69.9983,191.0777,270.1858,89.8896,5.4237e-05,5.54e-06,0.0,0 STARLINK-5257,1 55316U 23010AZ  24154.51094734  .00000554  00000-0  54237-4 0  9994,2 55316  69.9983 191.0777 0003527 270.1858  89.8896 14.98329505 78005,6950.194,96.107,574.511,569.608,0.0
55316.0,STARLINK-5257,PAYLOAD,2024-06-02 20:16:26,14.98330961,0.0003504,69.9984,190.2358,270.1382,89.9375,5.6771e-05,5.84e-06,0.0,0 STARLINK-5257,1 55316U 23010AZ  24154.84474643  .00000584  00000-0  56771-4 0  9999,2 55316  69.9984 190.2358 0003504 270.1382  89.9375 14.98330961 78055,6950.19,96.107,574.49,569.62,0.0
55316.0,STARLINK-5257,PAYLOAD,2024-06-03 05:53:14,14.98333857,0.0003527,69.9984,189.2259,270.0503,90.0251,8.8869e-05,9.68e-06,0.0,0 STARLINK-5257,1 55316U 23010AZ  24155.24530396  .00000968  00000-0  88869-4 0  9991,2 55316  69.9984 189.2259 0003527 270.0503  90.0251 14.98333857 76930,6950.181,96.107,574.497,569.595,0.0
55316.0,STARLINK-5257,PAYLOAD,2024-06-03 12:17:46,14.98336206,0.0003556,69.9984,188.5528,270.4348,89.6403,8.4512e-05,9.16e-06,0.0,0 STARLINK-5257,1 55316U 23010AZ  24155.51234217  .00000916  00000-0  84512-4 0  9998,2 55316  69.9984 188.5528 0003556 270.4348  89.6403 14.98336206 78154,6950.174,96.107,574.51,569.567,0.0
55316.0,STARLINK-5257,PAYLOAD,2024-06-04 04:19:08,14.98318353,0.0004149,69.9983,186.868,266.1815,93.887,-6.8706e-05,-9.13e-06,0.0,0 STARLINK-5257,1 55316U 23010AZ  24156.17995796 -.00000913  00000-0 -68706-4 0  9993,2 55316  69.9983 186.8680 0004149 266.1815  93.8870 14.98318353 77071,6950.229,96.108,574.978,569.21,0.0
55316.0,STARLINK-5257,PAYLOAD,2024-06-04 12:19:50,14.9830494,0.0003526,69.9985,186.0281,267.6643,92.4112,-0.00021961,-2.711e-05,0.0,0 STARLINK-5257,1 55316U 23010AZ  24156.51377512 -.00002711  00000-0 -21961-3 0  9990,2 55316  69.9985 186.0281 0003526 267.6643  92.4112 14.98304940 77122,6950.27,96.109,574.586,569.685,0.0
55316.0,STARLINK-5257,PAYLOAD,2024-06-04 18:44:21,14.98320063,0.0003929,69.9978,185.3526,269.6646,90.4062,-9.3365e-05,-1.207e-05,0.0,0 STARLINK-5257,1 55316U 23010AZ  24156.78080440 -.00001207  00000-0 -93365-4 0  9997,2 55316  69.9978 185.3526 0003929 269.6646  90.4062 14.98320063 77160,6950.224,96.108,574.819,569.358,0.0
55316.0,STARLINK-5257,PAYLOAD,2024-06-05 12:21:49,14.98338433,0.0003805,69.9975,183.5025,268.0302,92.0422,0.00015001,1.698e-05,0.0,0 STARLINK-5257,1 55316U 23010AZ  24157.51515113  .00001698  00000-0  15001-3 0  9991,2 55316  69.9975 183.5025 0003805 268.0302  92.0422 14.98338433 77276,6950.167,96.106,574.676,569.387,0.0
55316.0,STARLINK-5257,PAYLOAD,2024-06-05 18:46:21,14.98335668,0.0003903,69.9973,182.8289,267.7842,92.287,0.00026477,3.068e-05,0.0,0 STARLINK-5257,1 55316U 23010AZ  24157.78219203  .00003068  00000-0  26477-3 0  9993,2 55316  69.9973 182.8289 0003903 267.7842  92.2870 14.98335668 78493,6950.175,96.107,574.753,569.328,0.0
55316.0,STARLINK-5257,PAYLOAD,2024-06-06 04:23:10,14.98331426,0.000384,69.9981,181.8194,264.6425,95.4295,0.00062979,7.43e-05,0.0,0 STARLINK-5257,1 55316U 23010AZ  24158.18275999  .00007430  00000-0  62979-3 0  9996,2 55316  69.9981 181.8194 0003840 264.6425  95.4295 14.98331426 77379,6950.188,96.107,574.722,569.385,0.0
55316.0,STARLINK-5257,PAYLOAD,2024-06-06 10:47:42,14.98353229,0.0003707,69.9985,181.1458,262.5683,97.5055,0.00072183,8.536e-05,0.0,0 STARLINK-5257,1 55316U 23010AZ  24158.44979286  .00008536  00000-0  72183-3 0  9991,2 55316  69.9985 181.1458 0003707 262.5683  97.5055 14.98353229 77411,6950.121,96.106,574.562,569.41,0.0
55316.0,STARLINK-5257,PAYLOAD,2024-06-07 01:12:54,14.98346436,0.0003539,69.9989,179.6317,262.5737,97.502,0.00017823,2.035e-05,0.0,0 STARLINK-5257,1 55316U 23010AZ  24159.05062826  .00002035  00000-0  17823-3 0  9990,2 55316  69.9989 179.6317 0003539 262.5737  97.5020 14.98346436 77508,6950.142,96.106,574.467,569.547,0.0
55316.0,STARLINK-5257,PAYLOAD,2024-06-07 09:13:34,14.98345324,0.0003569,69.999,178.7901,262.4467,97.6286,0.00014836,1.678e-05,0.0,0 STARLINK-5257,1 55316U 23010AZ  24159.38442576  .00001678  00000-0  14836-3 0  9993,2 55316  69.9990 178.7901 0003569 262.4467  97.6286 14.98345324 78737,6950.146,96.106,574.491,569.53,0.0
55316.0,STARLINK-5257,PAYLOAD,2024-06-07 18:50:22,14.9834353,0.0003599,69.9987,177.7796,262.9649,97.11,8.5542e-05,9.28e-06,0.0,0 STARLINK-5257,1 55316U 23010AZ  24159.78498375  .00000928  00000-0  85542-4 0  9995,2 55316  69.9987 177.7796 0003599 262.9649  97.1100 14.98343530 78797,6950.151,96.106,574.517,569.515,0.0
55316.0,STARLINK-5257,PAYLOAD,2024-06-08 04:27:10,14.9834057,0.0003562,69.9988,176.7698,262.6583,97.4172,-5.1526e-06,-1.55e-06,0.0,0 STARLINK-5257,1 55316U 23010AZ  24160.18554218 -.00000155  00000-0 -51526-5 0  9990,2 55316  69.9988 176.7698 0003562 262.6583  97.4172 14.98340570 77671,6950.16,96.106,574.501,569.55,0.0
55316.0,STARLINK-5257,PAYLOAD,2024-06-08 10:51:43,14.98341684,0.000355,69.9983,176.0967,262.7603,97.3152,3.4712e-06,-5.2e-07,0.0,0 STARLINK-5257,1 55316U 23010AZ  24160.45258176 -.00000052  00000-0  34712-5 0  9997,2 55316  69.9983 176.0967 0003550 262.7603  97.3152 14.98341684 78898,6950.157,96.106,574.489,569.554,0.0
55316.0,STARLINK-5257,PAYLOAD,2024-06-08 18:52:23,14.98337964,0.0003508,69.9985,175.2548,262.7315,97.3445,-1.7036e-05,-2.96e-06,0.0,0 STARLINK-5257,1 55316U 23010AZ  24160.78638242 -.00000296  00000-0 -17036-4 0  9999,2 55316  69.9985 175.2548 0003508 262.7315  97.3445 14.98337964 78946,6950.168,96.106,574.471,569.595,0.0
55316.0,STARLINK-5257,PAYLOAD,2024-06-09 04:29:11,14.98334697,0.0003509,69.9985,174.2449,262.5028,97.5732,-2.0076e-05,-3.33e-06,0.0,0 STARLINK-5257,1 55316U 23010AZ  24161.18694303 -.00000333  00000-0 -20076-4 0  9994,2 55316  69.9985 174.2449 0003509 262.5028  97.5732 14.98334697 77822,6950.178,96.107,574.482,569.605,0.0
